{"type":"FeatureCollection", "features": [
{"type":"Feature","geometry":{"type":"Point","coordinates":[-46.71162499988759,-23.55786100032774]},"properties":{"bcp_local":"ESTACAO CIDADE UNIVERSITÁRIA","bcp_orgao":"VIA MOBILIDADE","bcp_vaga":60,"bcp_tipo":"BICICLETARIO","cd_identificador_bicicletario_paraciclo":1,"dt_carga":"2026-03-07Z","Name":"kml_0"},"id":"bicicletario_paraciclo.1"},
{"type":"Feature","geometry":{"type":"Point","coordinates":[-46.701457999616096,-23.566248999675622]},"properties":{"bcp_local":"TERMINAL PINHEIROS","bcp_orgao":"SPTRANS","bcp_vaga":2,"bcp_tipo":"PARACICLO","cd_identificador_bicicletario_paraciclo":2,"dt_carga":"2026-03-07Z","Name":"kml_1"},"id":"bicicletario_paraciclo.2"},
{"type":"Feature","geometry":{"type":"Point","coordinates":[-46.46890599997865,-23.598747000398514]},"properties":{"bcp_local":"ESTACAO JARDIM COLONIAL","bcp_orgao":"METRÔ - MONOTRI","bcp_vaga":64,"bcp_tipo":"PARACICLO","cd_identificador_bicicletario_paraciclo":3,"dt_carga":"2026-03-07Z","Name":"kml_2"},"id":"bicicletario_paraciclo.3"},
{"type":"Feature","geometry":{"type":"Point","coordinates":[-46.58972799957526,-23.543079000354822]},"properties":{"bcp_local":"ESTACAO BELEM","bcp_orgao":"METRO","bcp_vaga":8,"bcp_tipo":"PARACICLO","cd_identificador_bicicletario_paraciclo":4,"dt_carga":"2026-03-07Z","Name":"kml_3"},"id":"bicicletario_paraciclo.4"},
{"type":"Feature","geometry":{"type":"Point","coordinates":[-46.64079599995584,-23.646150000402795]},"properties":{"bcp_local":"ESTAÇÃO JABAQUARA","bcp_orgao":"METRO","bcp_vaga":8,"bcp_tipo":"PARACICLO","cd_identificador_bicicletario_paraciclo":5,"dt_carga":"2026-03-07Z","Name":"kml_4"},"id":"bicicletario_paraciclo.5"},
{"type":"Feature","geometry":{"type":"Point","coordinates":[-46.6268900004027,-23.550640000365554]},"properties":{"bcp_local":"ESTACAO PEDRO II","bcp_orgao":"SPTRANS","bcp_vaga":90,"bcp_tipo":"BICICLETARIO","cd_identificador_bicicletario_paraciclo":6,"dt_carga":"2026-03-07Z","Name":"kml_5"},"id":"bicicletario_paraciclo.6"},
{"type":"Feature","geometry":{"type":"Point","coordinates":[-46.61126600017965,-23.564107000404558]},"properties":{"bcp_local":"ESTACAO ALBERTO LYON","bcp_orgao":"SPTRANS","bcp_vaga":30,"bcp_tipo":"BICICLETARIO","cd_identificador_bicicletario_paraciclo":7,"dt_carga":"2026-03-07Z","Name":"kml_6"},"id":"bicicletario_paraciclo.7"},
{"type":"Feature","geometry":{"type":"Point","coordinates":[-46.69619700033704,-23.73593499960398]},"properties":{"bcp_local":"TERMINAL GRAJAU","bcp_orgao":"SPTRANS","bcp_vaga":4,"bcp_tipo":"PARACICLO","cd_identificador_bicicletario_paraciclo":8,"dt_carga":"2026-03-07Z","Name":"kml_7"},"id":"bicicletario_paraciclo.8"},
{"type":"Feature","geometry":{"type":"Point","coordinates":[-46.747445999944055,-23.43864299977824]},"properties":{"bcp_local":"ESTACAO VILA AURORA","bcp_orgao":"CPTM","bcp_vaga":144,"bcp_tipo":"BICICLETARIO","cd_identificador_bicicletario_paraciclo":9,"dt_carga":"2026-03-07Z","Name":"kml_8"},"id":"bicicletario_paraciclo.9"},
{"type":"Feature","geometry":{"type":"Point","coordinates":[-46.68417899963629,-23.56594500029995]},"properties":{"bcp_local":"ESTACAO FRADIQUE COUTINHO","bcp_orgao":"VIA QUATRO","bcp_vaga":86,"bcp_tipo":"BICICLETARIO","cd_identificador_bicicletario_paraciclo":10,"dt_carga":"2026-03-07Z","Name":"kml_9"},"id":"bicicletario_paraciclo.10"},
{"type":"Feature","geometry":{"type":"Point","coordinates":[-46.667136000478195,-23.69737000035729]},"properties":{"bcp_local":"TERM HID PQ MAR PAULISTA","bcp_orgao":"SPTRANS","bcp_vaga":51,"bcp_tipo":"BICICLETARIO","cd_identificador_bicicletario_paraciclo":11,"dt_carga":"2026-03-07Z","Name":"kml_10"},"id":"bicicletario_paraciclo.11"},
{"type":"Feature","geometry":{"type":"Point","coordinates":[-46.5305919996404,-23.531762000099725]},"properties":{"bcp_local":"ESTACAO MATILDE","bcp_orgao":"METRO","bcp_vaga":8,"bcp_tipo":"PARACICLO","cd_identificador_bicicletario_paraciclo":12,"dt_carga":"2026-03-07Z","Name":"kml_11"},"id":"bicicletario_paraciclo.12"},
{"type":"Feature","geometry":{"type":"Point","coordinates":[-46.7337430004381,-23.643821000230346]},"properties":{"bcp_local":"TERMINAL JOAO DIAS","bcp_orgao":"SPTRANS","bcp_vaga":4,"bcp_tipo":"PARACICLO","cd_identificador_bicicletario_paraciclo":13,"dt_carga":"2026-03-07Z","Name":"kml_12"},"id":"bicicletario_paraciclo.13"},
{"type":"Feature","geometry":{"type":"Point","coordinates":[-46.77395100015661,-23.690596000177916]},"properties":{"bcp_local":"TERMINAL JARDIM ANGELA","bcp_orgao":"SPTRANS","bcp_vaga":58,"bcp_tipo":"BICICLETARIO","cd_identificador_bicicletario_paraciclo":14,"dt_carga":"2026-03-07Z","Name":"kml_13"},"id":"bicicletario_paraciclo.14"},
{"type":"Feature","geometry":{"type":"Point","coordinates":[-46.72386400007412,-23.586271999692606]},"properties":{"bcp_local":"ESTACAO SAO PAULO - MORUMBI","bcp_orgao":"VIA QUATRO","bcp_vaga":80,"bcp_tipo":"BICICLETARIO","cd_identificador_bicicletario_paraciclo":15,"dt_carga":"2026-03-07Z","Name":"kml_14"},"id":"bicicletario_paraciclo.15"},
{"type":"Feature","geometry":{"type":"Point","coordinates":[-46.52714499977132,-23.600814999565433]},"properties":{"bcp_local":"ESTACAO VILA TOLSTOI","bcp_orgao":"METRÔ - MONOTRI","bcp_vaga":64,"bcp_tipo":"PARACICLO","cd_identificador_bicicletario_paraciclo":16,"dt_carga":"2026-03-07Z","Name":"kml_15"},"id":"bicicletario_paraciclo.16"},
{"type":"Feature","geometry":{"type":"Point","coordinates":[-46.70206599986964,-23.677831999661603]},"properties":{"bcp_local":"ESTACAO JURUBATUBA","bcp_orgao":"VIA MOBILIDADE","bcp_vaga":262,"bcp_tipo":"BICICLETARIO","cd_identificador_bicicletario_paraciclo":17,"dt_carga":"2026-03-07Z","Name":"kml_16"},"id":"bicicletario_paraciclo.17"},
{"type":"Feature","geometry":{"type":"Point","coordinates":[-46.63682199964188,-23.59879399984582]},"properties":{"bcp_local":"ESTACAO SANTA CRUZ","bcp_orgao":"VIA MOBILIDADE","bcp_vaga":80,"bcp_tipo":"BICICLETARIO","cd_identificador_bicicletario_paraciclo":18,"dt_carga":"2026-03-07Z","Name":"kml_17"},"id":"bicicletario_paraciclo.18"},
{"type":"Feature","geometry":{"type":"Point","coordinates":[-46.76825700016371,-23.659576999972803]},"properties":{"bcp_local":"ESTACAO CAPAO REDONDO","bcp_orgao":"VIA MOBILIDADE","bcp_vaga":16,"bcp_tipo":"PARACICLO","cd_identificador_bicicletario_paraciclo":19,"dt_carga":"2026-03-07Z","Name":"kml_18"},"id":"bicicletario_paraciclo.19"},
{"type":"Feature","geometry":{"type":"Point","coordinates":[-46.69188899998236,-23.72220900008524]},"properties":{"bcp_local":"ESTACAO PRIMAVERA- INTERLAGOS","bcp_orgao":"VIA MOBILIDADE","bcp_vaga":226,"bcp_tipo":"BICICLETARIO","cd_identificador_bicicletario_paraciclo":20,"dt_carga":"2026-03-07Z","Name":"kml_19"},"id":"bicicletario_paraciclo.20"},
{"type":"Feature","geometry":{"type":"Point","coordinates":[-46.40227200004597,-23.493883999934212]},"properties":{"bcp_local":"ESTACAO ITAIM PAULISTA","bcp_orgao":"CPTM","bcp_vaga":256,"bcp_tipo":"BICICLETARIO","cd_identificador_bicicletario_paraciclo":21,"dt_carga":"2026-03-07Z","Name":"kml_20"},"id":"bicicletario_paraciclo.21"},
{"type":"Feature","geometry":{"type":"Point","coordinates":[-46.71180099976075,-23.654190999676636]},"properties":{"bcp_local":"TERMINAL SANTO AMARO","bcp_orgao":"SPTRANS","bcp_vaga":52,"bcp_tipo":"BICICLETARIO","cd_identificador_bicicletario_paraciclo":22,"dt_carga":"2026-03-07Z","Name":"kml_21"},"id":"bicicletario_paraciclo.22"},
{"type":"Feature","geometry":{"type":"Point","coordinates":[-46.407977999926516,-23.583049000028428]},"properties":{"bcp_local":"TERMINAL CIDADE TIRADENTES","bcp_orgao":"SPTRANS","bcp_vaga":148,"bcp_tipo":"BICICLETARIO","cd_identificador_bicicletario_paraciclo":23,"dt_carga":"2026-03-07Z","Name":"kml_22"},"id":"bicicletario_paraciclo.23"},
{"type":"Feature","geometry":{"type":"Point","coordinates":[-46.47727999977357,-23.612211999874912]},"properties":{"bcp_local":"ESTACAO SAO MATEUS","bcp_orgao":"METRÔ - MONOTRI","bcp_vaga":64,"bcp_tipo":"PARACICLO","cd_identificador_bicicletario_paraciclo":24,"dt_carga":"2026-03-07Z","Name":"kml_23"},"id":"bicicletario_paraciclo.24"},
{"type":"Feature","geometry":{"type":"Point","coordinates":[-46.5974280000081,-23.598089000311052]},"properties":{"bcp_local":"ESTACAO R DO GRITO","bcp_orgao":"SPTRANS","bcp_vaga":82,"bcp_tipo":"BICICLETARIO","cd_identificador_bicicletario_paraciclo":25,"dt_carga":"2026-03-07Z","Name":"kml_24"},"id":"bicicletario_paraciclo.25"},
{"type":"Feature","geometry":{"type":"Point","coordinates":[-46.603465999680054,-23.48013500003496]},"properties":{"bcp_local":"ESTACAO TUCURUVI","bcp_orgao":"METRO","bcp_vaga":8,"bcp_tipo":"PARACICLO","cd_identificador_bicicletario_paraciclo":26,"dt_carga":"2026-03-07Z","Name":"kml_25"},"id":"bicicletario_paraciclo.26"},
{"type":"Feature","geometry":{"type":"Point","coordinates":[-46.68859400040244,-23.70613799974498]},"properties":{"bcp_local":"ESTACAO AUTODROMO","bcp_orgao":"VIA MOBILIDADE","bcp_vaga":261,"bcp_tipo":"BICICLETARIO","cd_identificador_bicicletario_paraciclo":27,"dt_carga":"2026-03-07Z","Name":"kml_26"},"id":"bicicletario_paraciclo.27"},
{"type":"Feature","geometry":{"type":"Point","coordinates":[-46.70841700000269,-23.57171700019266]},"properties":{"bcp_local":"ESTAÇÃO BUTANTÃ","bcp_orgao":"VIA QUATRO","bcp_vaga":149,"bcp_tipo":"BICICLETARIO","cd_identificador_bicicletario_paraciclo":28,"dt_carga":"2026-03-07Z","Name":"kml_27"},"id":"bicicletario_paraciclo.28"},
{"type":"Feature","geometry":{"type":"Point","coordinates":[-46.73557300028232,-23.669059999705496]},"properties":{"bcp_local":"TERMINAL GUARAPIRANGA","bcp_orgao":"SPTRANS","bcp_vaga":62,"bcp_tipo":"BICICLETARIO","cd_identificador_bicicletario_paraciclo":29,"dt_carga":"2026-03-07Z","Name":"kml_28"},"id":"bicicletario_paraciclo.29"},
{"type":"Feature","geometry":{"type":"Point","coordinates":[-46.52062499990469,-23.497832000284667]},"properties":{"bcp_local":"ESTACAO ENGENHERO GOULART (norte)","bcp_orgao":"CPTM","bcp_vaga":200,"bcp_tipo":"BICICLETARIO","cd_identificador_bicicletario_paraciclo":30,"dt_carga":"2026-03-07Z","Name":"kml_29"},"id":"bicicletario_paraciclo.30"},
{"type":"Feature","geometry":{"type":"Point","coordinates":[-46.68800400045451,-23.626482999646434]},"properties":{"bcp_local":"ESTACAO BROOKLIN","bcp_orgao":"VIA MOBILIDADE","bcp_vaga":30,"bcp_tipo":"BICICLETARIO","cd_identificador_bicicletario_paraciclo":31,"dt_carga":"2026-03-07Z","Name":"kml_30"},"id":"bicicletario_paraciclo.31"},
{"type":"Feature","geometry":{"type":"Point","coordinates":[-46.603286000112334,-23.57449800025843]},"properties":{"bcp_local":"ESTACAO CLUBE ATLETICO IPIRANGA","bcp_orgao":"SPTRANS","bcp_vaga":42,"bcp_tipo":"BICICLETARIO","cd_identificador_bicicletario_paraciclo":32,"dt_carga":"2026-03-07Z","Name":"kml_31"},"id":"bicicletario_paraciclo.32"},
{"type":"Feature","geometry":{"type":"Point","coordinates":[-46.640401999521856,-23.575225000365748]},"properties":{"bcp_local":"ESTACAO PARAISO","bcp_orgao":"METRO","bcp_vaga":8,"bcp_tipo":"PARACICLO","cd_identificador_bicicletario_paraciclo":33,"dt_carga":"2026-03-07Z","Name":"kml_32"},"id":"bicicletario_paraciclo.33"},
{"type":"Feature","geometry":{"type":"Point","coordinates":[-46.38523200007401,-23.484805999806422]},"properties":{"bcp_local":"ESTACAO JARDIM ROMANO","bcp_orgao":"CPTM","bcp_vaga":240,"bcp_tipo":"BICICLETARIO","cd_identificador_bicicletario_paraciclo":34,"dt_carga":"2026-03-07Z","Name":"kml_33"},"id":"bicicletario_paraciclo.34"},
{"type":"Feature","geometry":{"type":"Point","coordinates":[-46.77197600034276,-23.631692000113496]},"properties":{"bcp_local":"TERMINAL CAMPO LIMPO","bcp_orgao":"SPTRANS","bcp_vaga":2,"bcp_tipo":"PARACICLO","cd_identificador_bicicletario_paraciclo":35,"dt_carga":"2026-03-07Z","Name":"kml_34"},"id":"bicicletario_paraciclo.35"},
{"type":"Feature","geometry":{"type":"Point","coordinates":[-46.71155399969816,-23.65427799959381]},"properties":{"bcp_local":"TERMINAL SANTO AMARO","bcp_orgao":"SPTRANS","bcp_vaga":8,"bcp_tipo":"PARACICLO","cd_identificador_bicicletario_paraciclo":36,"dt_carga":"2026-03-07Z","Name":"kml_35"},"id":"bicicletario_paraciclo.36"},
{"type":"Feature","geometry":{"type":"Point","coordinates":[-46.47592299953038,-23.517284000328125]},"properties":{"bcp_local":"TERMINAL AE CARVALHO","bcp_orgao":"SPTRANS","bcp_vaga":42,"bcp_tipo":"BICICLETARIO","cd_identificador_bicicletario_paraciclo":37,"dt_carga":"2026-03-07Z","Name":"kml_36"},"id":"bicicletario_paraciclo.37"},
{"type":"Feature","geometry":{"type":"Point","coordinates":[-46.52269999966725,-23.55843599960709]},"properties":{"bcp_local":"TERMINAL VILA CARRAO","bcp_orgao":"SPTRANS","bcp_vaga":38,"bcp_tipo":"BICICLETARIO","cd_identificador_bicicletario_paraciclo":38,"dt_carga":"2026-03-07Z","Name":"kml_37"},"id":"bicicletario_paraciclo.38"},
{"type":"Feature","geometry":{"type":"Point","coordinates":[-46.434780000274,-23.49166200022039]},"properties":{"bcp_local":"TERMINAL SAO MIGUEL","bcp_orgao":"SPTRANS","bcp_vaga":64,"bcp_tipo":"BICICLETARIO","cd_identificador_bicicletario_paraciclo":39,"dt_carga":"2026-03-07Z","Name":"kml_38"},"id":"bicicletario_paraciclo.39"},
{"type":"Feature","geometry":{"type":"Point","coordinates":[-46.787229999553546,-23.431565000297372]},"properties":{"bcp_local":"TERMINAL JARDIM BRITANIA","bcp_orgao":"SPTRANS","bcp_vaga":12,"bcp_tipo":"BICICLETARIO","cd_identificador_bicicletario_paraciclo":40,"dt_carga":"2026-03-07Z","Name":"kml_39"},"id":"bicicletario_paraciclo.40"},
{"type":"Feature","geometry":{"type":"Point","coordinates":[-46.60891299957947,-23.48714599987503]},"properties":{"bcp_local":"ESTACAO PARADA INGLESA","bcp_orgao":"METRO","bcp_vaga":8,"bcp_tipo":"PARACICLO","cd_identificador_bicicletario_paraciclo":41,"dt_carga":"2026-03-07Z","Name":"kml_40"},"id":"bicicletario_paraciclo.41"},
{"type":"Feature","geometry":{"type":"Point","coordinates":[-46.69282099970783,-23.59279299986289]},"properties":{"bcp_local":"ESTACAO VILA OLÍMPIA","bcp_orgao":"VIA MOBILIDADE","bcp_vaga":94,"bcp_tipo":"BICICLETARIO","cd_identificador_bicicletario_paraciclo":42,"dt_carga":"2026-03-07Z","Name":"kml_41"},"id":"bicicletario_paraciclo.42"},
{"type":"Feature","geometry":{"type":"Point","coordinates":[-46.61676000001459,-23.49254300018232]},"properties":{"bcp_local":"ESTACAO JD SAO PAULO - AYRTON SENNA","bcp_orgao":"METRO","bcp_vaga":16,"bcp_tipo":"PARACICLO","cd_identificador_bicicletario_paraciclo":43,"dt_carga":"2026-03-07Z","Name":"kml_42"},"id":"bicicletario_paraciclo.43"},
{"type":"Feature","geometry":{"type":"Point","coordinates":[-46.667183000460525,-23.525634000405294]},"properties":{"bcp_local":"ESTACAO PALMEIRAS - BARRA FUNDA","bcp_orgao":"METRO","bcp_vaga":4,"bcp_tipo":"PARACICLO","cd_identificador_bicicletario_paraciclo":44,"dt_carga":"2026-03-07Z","Name":"kml_43"},"id":"bicicletario_paraciclo.44"},
{"type":"Feature","geometry":{"type":"Point","coordinates":[-46.645609000071154,-23.598270000419625]},"properties":{"bcp_local":"ESTACAO HOSPITAL SÃO PAULO","bcp_orgao":"VIA MOBILIDADE","bcp_vaga":30,"bcp_tipo":"BICICLETARIO","cd_identificador_bicicletario_paraciclo":45,"dt_carga":"2026-03-07Z","Name":"kml_44"},"id":"bicicletario_paraciclo.45"},
{"type":"Feature","geometry":{"type":"Point","coordinates":[-46.73542599985576,-23.669161000263898]},"properties":{"bcp_local":"TERMINAL GUARAPIRANGA","bcp_orgao":"VIA MOBILIDADE","bcp_vaga":4,"bcp_tipo":"PARACICLO","cd_identificador_bicicletario_paraciclo":46,"dt_carga":"2026-03-07Z","Name":"kml_45"},"id":"bicicletario_paraciclo.46"},
{"type":"Feature","geometry":{"type":"Point","coordinates":[-46.420820000256754,-23.492302999619806]},"properties":{"bcp_local":"ESTACAO JARDIM HELENA- VILA MARA","bcp_orgao":"CPTM","bcp_vaga":256,"bcp_tipo":"BICICLETARIO","cd_identificador_bicicletario_paraciclo":47,"dt_carga":"2026-03-07Z","Name":"kml_46"},"id":"bicicletario_paraciclo.47"},
{"type":"Feature","geometry":{"type":"Point","coordinates":[-46.561674000388976,-23.582227000425743]},"properties":{"bcp_local":"ESTACAO ORATORIO","bcp_orgao":"METRO - MONOTRI","bcp_vaga":40,"bcp_tipo":"PARACICLO","cd_identificador_bicicletario_paraciclo":48,"dt_carga":"2026-03-07Z","Name":"kml_47"},"id":"bicicletario_paraciclo.48"},
{"type":"Feature","geometry":{"type":"Point","coordinates":[-46.500940000217405,-23.614628000241215]},"properties":{"bcp_local":"ESTACAO SAPOPEMBA","bcp_orgao":"METRÔ - MONOTRI","bcp_vaga":64,"bcp_tipo":"PARACICLO","cd_identificador_bicicletario_paraciclo":49,"dt_carga":"2026-03-07Z","Name":"kml_48"},"id":"bicicletario_paraciclo.49"},
{"type":"Feature","geometry":{"type":"Point","coordinates":[-46.63969700007168,-23.54942099982839]},"properties":{"bcp_local":"TERMINAL BANDEIRA","bcp_orgao":"SPTRANS","bcp_vaga":4,"bcp_tipo":"PARACICLO","cd_identificador_bicicletario_paraciclo":50,"dt_carga":"2026-03-07Z","Name":"kml_49"},"id":"bicicletario_paraciclo.50"},
{"type":"Feature","geometry":{"type":"Point","coordinates":[-46.589917000174445,-23.59245699957948]},"properties":{"bcp_local":"ESTACAO TAMANDUATEI","bcp_orgao":"METRO","bcp_vaga":8,"bcp_tipo":"PARACICLO","cd_identificador_bicicletario_paraciclo":51,"dt_carga":"2026-03-07Z","Name":"kml_50"},"id":"bicicletario_paraciclo.51"},
{"type":"Feature","geometry":{"type":"Point","coordinates":[-46.758822999590215,-23.649459000040903]},"properties":{"bcp_local":"ESTACAO CAMPO LIMPO","bcp_orgao":"VIA MOBILIDADE","bcp_vaga":16,"bcp_tipo":"PARACICLO","cd_identificador_bicicletario_paraciclo":52,"dt_carga":"2026-03-07Z","Name":"kml_51"},"id":"bicicletario_paraciclo.52"},
{"type":"Feature","geometry":{"type":"Point","coordinates":[-46.681992999578284,-23.618399000394117]},"properties":{"bcp_local":"ESTACAO CAMPO BELO","bcp_orgao":"VIA MOBILIDADE","bcp_vaga":114,"bcp_tipo":"BICICLETARIO","cd_identificador_bicicletario_paraciclo":53,"dt_carga":"2026-03-07Z","Name":"kml_52"},"id":"bicicletario_paraciclo.53"},
{"type":"Feature","geometry":{"type":"Point","coordinates":[-46.69669599959838,-23.736407000031903]},"properties":{"bcp_local":"ESTACAO GRAJAU","bcp_orgao":"VIA MOBILIDADE","bcp_vaga":178,"bcp_tipo":"BICICLETARIO","cd_identificador_bicicletario_paraciclo":54,"dt_carga":"2026-03-07Z","Name":"kml_53"},"id":"bicicletario_paraciclo.54"},
{"type":"Feature","geometry":{"type":"Point","coordinates":[-46.66993900009943,-23.47475200042651]},"properties":{"bcp_local":"TERMINAL VILA NOVA CACHOEIRINHA","bcp_orgao":"SPTRANS","bcp_vaga":24,"bcp_tipo":"BICICLETARIO","cd_identificador_bicicletario_paraciclo":55,"dt_carga":"2026-03-07Z","Name":"kml_54"},"id":"bicicletario_paraciclo.55"},
{"type":"Feature","geometry":{"type":"Point","coordinates":[-46.63372399978825,-23.550949999669292]},"properties":{"bcp_local":"ESTACAO SE","bcp_orgao":"METRO","bcp_vaga":20,"bcp_tipo":"PARACICLO","cd_identificador_bicicletario_paraciclo":56,"dt_carga":"2026-03-07Z","Name":"kml_55"},"id":"bicicletario_paraciclo.56"},
{"type":"Feature","geometry":{"type":"Point","coordinates":[-46.71664100041906,-23.767100999659696]},"properties":{"bcp_local":"TERMINAL VARGINHA","bcp_orgao":"SPTRANS","bcp_vaga":50,"bcp_tipo":"BICICLETARIO","cd_identificador_bicicletario_paraciclo":57,"dt_carga":"2026-03-07Z","Name":"kml_56"},"id":"bicicletario_paraciclo.57"},
{"type":"Feature","geometry":{"type":"Point","coordinates":[-46.72711500034512,-23.828181999870605]},"properties":{"bcp_local":"TERMINAL PARELHEIROS","bcp_orgao":"SPTRANS","bcp_vaga":4,"bcp_tipo":"PARACICLO","cd_identificador_bicicletario_paraciclo":58,"dt_carga":"2026-03-07Z","Name":"kml_57"},"id":"bicicletario_paraciclo.58"},
{"type":"Feature","geometry":{"type":"Point","coordinates":[-46.71677000000364,-23.76716200035298]},"properties":{"bcp_local":"TERMINAL VARGINHA","bcp_orgao":"SPTRANS","bcp_vaga":4,"bcp_tipo":"PARACICLO","cd_identificador_bicicletario_paraciclo":59,"dt_carga":"2026-03-07Z","Name":"kml_58"},"id":"bicicletario_paraciclo.59"},
{"type":"Feature","geometry":{"type":"Point","coordinates":[-46.58313599956986,-23.585175000317804]},"properties":{"bcp_local":"ESTACAO VILA PRUDENTE","bcp_orgao":"METRO - MONOTRI","bcp_vaga":64,"bcp_tipo":"PARACICLO","cd_identificador_bicicletario_paraciclo":60,"dt_carga":"2026-03-07Z","Name":"kml_59"},"id":"bicicletario_paraciclo.60"},
{"type":"Feature","geometry":{"type":"Point","coordinates":[-46.4707110000292,-23.54270100026873]},"properties":{"bcp_local":"ESTACAO CORINTHIANS - ITAQUERA","bcp_orgao":"METRO","bcp_vaga":56,"bcp_tipo":"PARACICLO","cd_identificador_bicicletario_paraciclo":61,"dt_carga":"2026-03-07Z","Name":"kml_60"},"id":"bicicletario_paraciclo.61"},
{"type":"Feature","geometry":{"type":"Point","coordinates":[-46.48750100045758,-23.611714000076333]},"properties":{"bcp_local":"ESTACAO FAZENDA DA JUTA","bcp_orgao":"METRÔ - MONOTRI","bcp_vaga":64,"bcp_tipo":"PARACICLO","cd_identificador_bicicletario_paraciclo":62,"dt_carga":"2026-03-07Z","Name":"kml_61"},"id":"bicicletario_paraciclo.62"},
{"type":"Feature","geometry":{"type":"Point","coordinates":[-46.54264299963996,-23.533260999857585]},"properties":{"bcp_local":"ESTACAO PENHA","bcp_orgao":"METRO","bcp_vaga":8,"bcp_tipo":"PARACICLO","cd_identificador_bicicletario_paraciclo":63,"dt_carga":"2026-03-07Z","Name":"kml_62"},"id":"bicicletario_paraciclo.63"},
{"type":"Feature","geometry":{"type":"Point","coordinates":[-46.74263500031797,-23.537202000274007]},"properties":{"bcp_local":"ESTACAO CEASA","bcp_orgao":"VIA MOBILIDADE","bcp_vaga":144,"bcp_tipo":"BICICLETARIO","cd_identificador_bicicletario_paraciclo":64,"dt_carga":"2026-03-07Z","Name":"kml_63"},"id":"bicicletario_paraciclo.64"},
{"type":"Feature","geometry":{"type":"Point","coordinates":[-46.60337599997175,-23.60346199977962]},"properties":{"bcp_local":"TERMINAL SACOMA","bcp_orgao":"SPTRANS","bcp_vaga":146,"bcp_tipo":"BICICLETARIO","cd_identificador_bicicletario_paraciclo":65,"dt_carga":"2026-03-07Z","Name":"kml_64"},"id":"bicicletario_paraciclo.65"},
{"type":"Feature","geometry":{"type":"Point","coordinates":[-46.635544000451645,-23.555041999836043]},"properties":{"bcp_local":"ESTACAO JAPAO - LIBERDADE","bcp_orgao":"METRO","bcp_vaga":8,"bcp_tipo":"PARACICLO","cd_identificador_bicicletario_paraciclo":66,"dt_carga":"2026-03-07Z","Name":"kml_65"},"id":"bicicletario_paraciclo.66"},
{"type":"Feature","geometry":{"type":"Point","coordinates":[-46.44345399959309,-23.490313000153183]},"properties":{"bcp_local":"ESTACAO SAO MIGUEL PAULISTA","bcp_orgao":"CPTM","bcp_vaga":208,"bcp_tipo":"BICICLETARIO","cd_identificador_bicicletario_paraciclo":67,"dt_carga":"2026-03-07Z","Name":"kml_66"},"id":"bicicletario_paraciclo.67"},
{"type":"Feature","geometry":{"type":"Point","coordinates":[-46.69629599954714,-23.735813999721174]},"properties":{"bcp_local":"TERMINAL GRAJAU","bcp_orgao":"SPTRANS","bcp_vaga":54,"bcp_tipo":"BICICLETARIO","cd_identificador_bicicletario_paraciclo":68,"dt_carga":"2026-03-07Z","Name":"kml_67"},"id":"bicicletario_paraciclo.68"},
{"type":"Feature","geometry":{"type":"Point","coordinates":[-46.64464600033211,-23.534183000084873]},"properties":{"bcp_local":"TERMINAL PRINCESA ISABEL","bcp_orgao":"SPTRANS","bcp_vaga":66,"bcp_tipo":"BICICLETARIO","cd_identificador_bicicletario_paraciclo":69,"dt_carga":"2026-03-07Z","Name":"kml_68"},"id":"bicicletario_paraciclo.69"},
{"type":"Feature","geometry":{"type":"Point","coordinates":[-46.74576000022962,-23.640226000068445]},"properties":{"bcp_local":"ESTACAO CAPAO VILA DAS BELEZAS","bcp_orgao":"VIA MOBILIDADE","bcp_vaga":16,"bcp_tipo":"PARACICLO","cd_identificador_bicicletario_paraciclo":70,"dt_carga":"2026-03-07Z","Name":"kml_69"},"id":"bicicletario_paraciclo.70"},
{"type":"Feature","geometry":{"type":"Point","coordinates":[-46.48414700034754,-23.54060300033743]},"properties":{"bcp_local":"ESTACAO ARTUR ALVIM","bcp_orgao":"METRO","bcp_vaga":8,"bcp_tipo":"PARACICLO","cd_identificador_bicicletario_paraciclo":71,"dt_carga":"2026-03-07Z","Name":"kml_70"},"id":"bicicletario_paraciclo.71"},
{"type":"Feature","geometry":{"type":"Point","coordinates":[-46.58483200028364,-23.58395099994296]},"properties":{"bcp_local":"TERMINAL VILA PRUDENTE","bcp_orgao":"SPTRANS","bcp_vaga":62,"bcp_tipo":"BICICLETARIO","cd_identificador_bicicletario_paraciclo":72,"dt_carga":"2026-03-07Z","Name":"kml_71"},"id":"bicicletario_paraciclo.72"},
{"type":"Feature","geometry":{"type":"Point","coordinates":[-46.59805199975842,-23.59130699999106]},"properties":{"bcp_local":"ESTACAO NSRA APARECIDA","bcp_orgao":"SPTRANS","bcp_vaga":46,"bcp_tipo":"BICICLETARIO","cd_identificador_bicicletario_paraciclo":73,"dt_carga":"2026-03-07Z","Name":"kml_72"},"id":"bicicletario_paraciclo.73"},
{"type":"Feature","geometry":{"type":"Point","coordinates":[-46.56496699985816,-23.537879999863723]},"properties":{"bcp_local":"ESTACAO CARRAO","bcp_orgao":"METRO","bcp_vaga":40,"bcp_tipo":"PARACICLO","cd_identificador_bicicletario_paraciclo":74,"dt_carga":"2026-03-07Z","Name":"kml_73"},"id":"bicicletario_paraciclo.74"},
{"type":"Feature","geometry":{"type":"Point","coordinates":[-46.77409600030895,-23.690641999881056]},"properties":{"bcp_local":"TERMINAL JARDIM ANGELA","bcp_orgao":"SPTRANS","bcp_vaga":4,"bcp_tipo":"PARACICLO","cd_identificador_bicicletario_paraciclo":75,"dt_carga":"2026-03-07Z","Name":"kml_74"},"id":"bicicletario_paraciclo.75"},
{"type":"Feature","geometry":{"type":"Point","coordinates":[-46.73392999998678,-23.643699000175683]},"properties":{"bcp_local":"TERMINAL JOAO DIAS","bcp_orgao":"SPTRANS","bcp_vaga":68,"bcp_tipo":"BICICLETARIO","cd_identificador_bicicletario_paraciclo":76,"dt_carga":"2026-03-07Z","Name":"kml_75"},"id":"bicicletario_paraciclo.76"},
{"type":"Feature","geometry":{"type":"Point","coordinates":[-46.72704899973767,-23.8282809998434]},"properties":{"bcp_local":"TERMINAL PARELHEIROS","bcp_orgao":"SPTRANS","bcp_vaga":26,"bcp_tipo":"BICICLETARIO","cd_identificador_bicicletario_paraciclo":77,"dt_carga":"2026-03-07Z","Name":"kml_76"},"id":"bicicletario_paraciclo.77"},
{"type":"Feature","geometry":{"type":"Point","coordinates":[-46.614838999783515,-23.558871999717272]},"properties":{"bcp_local":"ESTACAO ANA NERY","bcp_orgao":"SPTRANS","bcp_vaga":90,"bcp_tipo":"BICICLETARIO","cd_identificador_bicicletario_paraciclo":78,"dt_carga":"2026-03-07Z","Name":"kml_77"},"id":"bicicletario_paraciclo.78"},
{"type":"Feature","geometry":{"type":"Point","coordinates":[-46.761744999837894,-23.65456900041332]},"properties":{"bcp_local":"TERMINAL CAPELINHA","bcp_orgao":"SPTRANS","bcp_vaga":102,"bcp_tipo":"BICICLETARIO","cd_identificador_bicicletario_paraciclo":79,"dt_carga":"2026-03-07Z","Name":"kml_78"},"id":"bicicletario_paraciclo.79"},
{"type":"Feature","geometry":{"type":"Point","coordinates":[-46.53757300048571,-23.595510000048513]},"properties":{"bcp_local":"ESTACAO CAMILO HADDAD","bcp_orgao":"METRÔ - MONOTRI","bcp_vaga":64,"bcp_tipo":"PARACICLO","cd_identificador_bicicletario_paraciclo":80,"dt_carga":"2026-03-07Z","Name":"kml_79"},"id":"bicicletario_paraciclo.80"},
{"type":"Feature","geometry":{"type":"Point","coordinates":[-46.50126900018645,-23.614277999667447]},"properties":{"bcp_local":"TERMINAL SAPOPEMBA/ TEOTONIO","bcp_orgao":"SPTRANS","bcp_vaga":42,"bcp_tipo":"BICICLETARIO","cd_identificador_bicicletario_paraciclo":81,"dt_carga":"2026-03-07Z","Name":"kml_80"},"id":"bicicletario_paraciclo.81"},
{"type":"Feature","geometry":{"type":"Point","coordinates":[-46.66245699999024,-23.49610899984908]},"properties":{"bcp_local":"TERMINAL CASA VERDE","bcp_orgao":"SPTRANS","bcp_vaga":7,"bcp_tipo":"BICICLETARIO","cd_identificador_bicicletario_paraciclo":82,"dt_carga":"2026-03-07Z","Name":"kml_81"},"id":"bicicletario_paraciclo.82"},
{"type":"Feature","geometry":{"type":"Point","coordinates":[-46.589599999599834,-23.59305099992715]},"properties":{"bcp_local":"ESTACAO TAMANDUATEI","bcp_orgao":"CPTM","bcp_vaga":164,"bcp_tipo":"BICICLETARIO","cd_identificador_bicicletario_paraciclo":83,"dt_carga":"2026-03-07Z","Name":"kml_82"},"id":"bicicletario_paraciclo.83"},
{"type":"Feature","geometry":{"type":"Point","coordinates":[-46.51638700026346,-23.528973000129945]},"properties":{"bcp_local":"ESTACAO GUILHERMINA ESPERANÇA","bcp_orgao":"METRO","bcp_vaga":155,"bcp_tipo":"PARACICLO","cd_identificador_bicicletario_paraciclo":84,"dt_carga":"2026-03-07Z","Name":"kml_83"},"id":"bicicletario_paraciclo.84"},
{"type":"Feature","geometry":{"type":"Point","coordinates":[-46.453442999582315,-23.534803000210164]},"properties":{"bcp_local":"ESTAÇÃO DE TRANSFERENCIA ITAQUERA","bcp_orgao":"SPTRANS","bcp_vaga":20,"bcp_tipo":"BICICLETARIO","cd_identificador_bicicletario_paraciclo":85,"dt_carga":"2026-03-07Z","Name":"kml_84"},"id":"bicicletario_paraciclo.85"},
{"type":"Feature","geometry":{"type":"Point","coordinates":[-46.52025499993175,-23.49883200029738]},"properties":{"bcp_local":"ESTACAO ENGENHERO GOULART (sul)","bcp_orgao":"CPTM","bcp_vaga":74,"bcp_tipo":"BICICLETARIO","cd_identificador_bicicletario_paraciclo":86,"dt_carga":"2026-03-07Z","Name":"kml_85"},"id":"bicicletario_paraciclo.86"},
{"type":"Feature","geometry":{"type":"Point","coordinates":[-46.6368040004739,-23.59862099959985]},"properties":{"bcp_local":"ESTACAO SANTA CRUZ","bcp_orgao":"METRO","bcp_vaga":8,"bcp_tipo":"PARACICLO","cd_identificador_bicicletario_paraciclo":87,"dt_carga":"2026-03-07Z","Name":"kml_86"},"id":"bicicletario_paraciclo.87"},
{"type":"Feature","geometry":{"type":"Point","coordinates":[-46.6990319995717,-23.64136599981968]},"properties":{"bcp_local":"ESTACAO ALTO DA BOA VISTA","bcp_orgao":"VIA MOBILIDADE","bcp_vaga":100,"bcp_tipo":"BICICLETARIO","cd_identificador_bicicletario_paraciclo":88,"dt_carga":"2026-03-07Z","Name":"kml_87"},"id":"bicicletario_paraciclo.88"},
{"type":"Feature","geometry":{"type":"Point","coordinates":[-46.72629699988678,-23.486585999603054]},"properties":{"bcp_local":"TERMINAL PIRITUBA","bcp_orgao":"SPTRANS","bcp_vaga":2,"bcp_tipo":"PARACICLO","cd_identificador_bicicletario_paraciclo":89,"dt_carga":"2026-03-07Z","Name":"kml_88"},"id":"bicicletario_paraciclo.89"},
{"type":"Feature","geometry":{"type":"Point","coordinates":[-46.64749799957725,-23.54056400002621]},"properties":{"bcp_local":"TERMINAL AMARAL GURGEL","bcp_orgao":"SPTRANS","bcp_vaga":41,"bcp_tipo":"BICICLETARIO","cd_identificador_bicicletario_paraciclo":90,"dt_carga":"2026-03-07Z","Name":"kml_89"},"id":"bicicletario_paraciclo.90"},
{"type":"Feature","geometry":{"type":"Point","coordinates":[-46.66820399979529,-23.609726999635367]},"properties":{"bcp_local":"ESTACAO EUCALIPTOS","bcp_orgao":"VIA MOBILIDADE","bcp_vaga":92,"bcp_tipo":"BICICLETARIO","cd_identificador_bicicletario_paraciclo":91,"dt_carga":"2026-03-07Z","Name":"kml_90"},"id":"bicicletario_paraciclo.91"},
{"type":"Feature","geometry":{"type":"Point","coordinates":[-46.64949100029735,-23.53911799963493]},"properties":{"bcp_local":"ESTACAO SANTA CECÍLIA","bcp_orgao":"METRO","bcp_vaga":8,"bcp_tipo":"PARACICLO","cd_identificador_bicicletario_paraciclo":92,"dt_carga":"2026-03-07Z","Name":"kml_91"},"id":"bicicletario_paraciclo.92"},
{"type":"Feature","geometry":{"type":"Point","coordinates":[-46.63022700002391,-23.547158999669705]},"properties":{"bcp_local":"TERMINAL PARQUE DOM PEDRO II","bcp_orgao":"SPTRANS","bcp_vaga":156,"bcp_tipo":"BICICLETARIO","cd_identificador_bicicletario_paraciclo":93,"dt_carga":"2026-03-07Z","Name":"kml_92"},"id":"bicicletario_paraciclo.93"},
{"type":"Feature","geometry":{"type":"Point","coordinates":[-46.692637000413924,-23.633211999712994]},"properties":{"bcp_local":"ESTACAO BORBA GATO","bcp_orgao":"VIA MOBILIDADE","bcp_vaga":84,"bcp_tipo":"BICICLETARIO","cd_identificador_bicicletario_paraciclo":94,"dt_carga":"2026-03-07Z","Name":"kml_93"},"id":"bicicletario_paraciclo.94"},
{"type":"Feature","geometry":{"type":"Point","coordinates":[-46.57625999986183,-23.540371000447323]},"properties":{"bcp_local":"ESTACAO TATUAPE","bcp_orgao":"METRO","bcp_vaga":8,"bcp_tipo":"PARACICLO","cd_identificador_bicicletario_paraciclo":95,"dt_carga":"2026-03-07Z","Name":"kml_94"},"id":"bicicletario_paraciclo.95"},
{"type":"Feature","geometry":{"type":"Point","coordinates":[-46.639623999526876,-23.54948600011175]},"properties":{"bcp_local":"TERMINAL BANDEIRA","bcp_orgao":"SPTRANS","bcp_vaga":51,"bcp_tipo":"BICICLETARIO","cd_identificador_bicicletario_paraciclo":96,"dt_carga":"2026-03-07Z","Name":"kml_95"},"id":"bicicletario_paraciclo.96"},
{"type":"Feature","geometry":{"type":"Point","coordinates":[-46.65251200024058,-23.597529999753384]},"properties":{"bcp_local":"ESTACAO AACD - SERVIDOR","bcp_orgao":"VIA MOBILIDADE","bcp_vaga":36,"bcp_tipo":"BICICLETARIO","cd_identificador_bicicletario_paraciclo":97,"dt_carga":"2026-03-07Z","Name":"kml_96"},"id":"bicicletario_paraciclo.97"},
{"type":"Feature","geometry":{"type":"Point","coordinates":[-46.77215099983138,-23.631434999917992]},"properties":{"bcp_local":"TERMINAL CAMPO LIMPO","bcp_orgao":"SPTRANS","bcp_vaga":150,"bcp_tipo":"BICICLETARIO","cd_identificador_bicicletario_paraciclo":98,"dt_carga":"2026-03-07Z","Name":"kml_97"},"id":"bicicletario_paraciclo.98"},
{"type":"Feature","geometry":{"type":"Point","coordinates":[-46.72646699992276,-23.486638999996995]},"properties":{"bcp_local":"TERMINAL PIRITUBA","bcp_orgao":"SPTRANS","bcp_vaga":156,"bcp_tipo":"BICICLETARIO","cd_identificador_bicicletario_paraciclo":99,"dt_carga":"2026-03-07Z","Name":"kml_98"},"id":"bicicletario_paraciclo.99"},
{"type":"Feature","geometry":{"type":"Point","coordinates":[-46.50078299993892,-23.48501599995308]},"properties":{"bcp_local":"ESTACAO USP LESTE","bcp_orgao":"CPTM","bcp_vaga":270,"bcp_tipo":"BICICLETARIO","cd_identificador_bicicletario_paraciclo":100,"dt_carga":"2026-03-07Z","Name":"kml_99"},"id":"bicicletario_paraciclo.100"},
{"type":"Feature","geometry":{"type":"Point","coordinates":[-46.69996800025123,-23.52025300004127]},"properties":{"bcp_local":"TERMINAL LAPA","bcp_orgao":"SPTRANS","bcp_vaga":74,"bcp_tipo":"BICICLETARIO","cd_identificador_bicicletario_paraciclo":101,"dt_carga":"2026-03-07Z","Name":"kml_100"},"id":"bicicletario_paraciclo.101"},
{"type":"Feature","geometry":{"type":"Point","coordinates":[-46.5818340004155,-23.584624999691847]},"properties":{"bcp_local":"ESTAÇÃO VILA PRUDENTE","bcp_orgao":"METRO","bcp_vaga":10,"bcp_tipo":"PARACICLO","cd_identificador_bicicletario_paraciclo":102,"dt_carga":"2026-03-07Z","Name":"kml_101"},"id":"bicicletario_paraciclo.102"},
{"type":"Feature","geometry":{"type":"Point","coordinates":[-46.701578000299406,-23.566134999721108]},"properties":{"bcp_local":"TERMINAL PINHEIROS","bcp_orgao":"SPTRANS","bcp_vaga":77,"bcp_tipo":"BICICLETARIO","cd_identificador_bicicletario_paraciclo":103,"dt_carga":"2026-03-07Z","Name":"kml_102"},"id":"bicicletario_paraciclo.103"},
{"type":"Feature","geometry":{"type":"Point","coordinates":[-46.642190999738496,-23.64581300034151]},"properties":{"bcp_local":"TERMINAL JABAQUARA","bcp_orgao":"EMTU","bcp_vaga":225,"bcp_tipo":"BICICLETARIO","cd_identificador_bicicletario_paraciclo":104,"dt_carga":"2026-03-07Z","Name":"kml_103"},"id":"bicicletario_paraciclo.104"},
{"type":"Feature","geometry":{"type":"Point","coordinates":[-46.66210099965355,-23.603699000227895]},"properties":{"bcp_local":"ESTACAO MOEMA","bcp_orgao":"VIA MOBILIDADE","bcp_vaga":68,"bcp_tipo":"BICICLETARIO","cd_identificador_bicicletario_paraciclo":105,"dt_carga":"2026-03-07Z","Name":"kml_104"},"id":"bicicletario_paraciclo.105"},
{"type":"Feature","geometry":{"type":"Point","coordinates":[-46.732455999569865,-23.545677000366258]},"properties":{"bcp_local":"ESTACAO VILA LOBOS- JAGUARE","bcp_orgao":"VIA MOBILIDADE","bcp_vaga":233,"bcp_tipo":"BICICLETARIO","cd_identificador_bicicletario_paraciclo":106,"dt_carga":"2026-03-07Z","Name":"kml_105"},"id":"bicicletario_paraciclo.106"},
{"type":"Feature","geometry":{"type":"Point","coordinates":[-46.62889799999877,-23.547243000333985]},"properties":{"bcp_local":"TERMINAL MERCADO","bcp_orgao":"SPTRANS","bcp_vaga":58,"bcp_tipo":"BICICLETARIO","cd_identificador_bicicletario_paraciclo":107,"dt_carga":"2026-03-07Z","Name":"kml_106"},"id":"bicicletario_paraciclo.107"},
{"type":"Feature","geometry":{"type":"Point","coordinates":[-46.54460899964424,-23.588949999820667]},"properties":{"bcp_local":"ESTACAO SAO LUCAS","bcp_orgao":"METRO - MONOTRI","bcp_vaga":64,"bcp_tipo":"PARACICLO","cd_identificador_bicicletario_paraciclo":108,"dt_carga":"2026-03-07Z","Name":"kml_107"},"id":"bicicletario_paraciclo.108"},
{"type":"Feature","geometry":{"type":"Point","coordinates":[-46.51559800041989,-23.602906000124843]},"properties":{"bcp_local":"ESTACAO VILA UNIAO","bcp_orgao":"METRÔ - MONOTRI","bcp_vaga":64,"bcp_tipo":"PARACICLO","cd_identificador_bicicletario_paraciclo":109,"dt_carga":"2026-03-07Z","Name":"kml_108"},"id":"bicicletario_paraciclo.109"},
{"type":"Feature","geometry":{"type":"Point","coordinates":[-46.70162400015002,-23.5674810000131]},"properties":{"bcp_local":"ESTACAO PINHEIROS","bcp_orgao":"VIA QUATRO","bcp_vaga":117,"bcp_tipo":"BICICLETARIO","cd_identificador_bicicletario_paraciclo":110,"dt_carga":"2026-03-07Z","Name":"kml_109"},"id":"bicicletario_paraciclo.110"},
{"type":"Feature","geometry":{"type":"Point","coordinates":[-46.761734999535996,-23.654648999637104]},"properties":{"bcp_local":"TERMINAL CAPELINHA","bcp_orgao":"SPTRANS","bcp_vaga":4,"bcp_tipo":"PARACICLO","cd_identificador_bicicletario_paraciclo":111,"dt_carga":"2026-03-07Z","Name":"kml_110"},"id":"bicicletario_paraciclo.111"},
{"type":"Feature","geometry":{"type":"Point","coordinates":[-46.48226600033274,-23.484942999798147]},"properties":{"bcp_local":"ESTACAO COMENDADOR ERMELINO","bcp_orgao":"CPTM","bcp_vaga":196,"bcp_tipo":"BICICLETARIO","cd_identificador_bicicletario_paraciclo":112,"dt_carga":"2026-03-07Z","Name":"kml_111"},"id":"bicicletario_paraciclo.112"},
{"type":"Feature","geometry":{"type":"Point","coordinates":[-46.656768999600466,-23.73956500038008]},"properties":{"bcp_local":"TERM HID PQ LINEAR CANTINHO DO CEU","bcp_orgao":"SPTRANS","bcp_vaga":51,"bcp_tipo":"BICICLETARIO","cd_identificador_bicicletario_paraciclo":113,"dt_carga":"2026-03-07Z","Name":"kml_112"},"id":"bicicletario_paraciclo.113"},
{"type":"Feature","geometry":{"type":"Point","coordinates":[-46.50773000004301,-23.606335999910858]},"properties":{"bcp_local":"ESTACAO JARDIM PLANALTO","bcp_orgao":"METRÔ - MONOTRI","bcp_vaga":64,"bcp_tipo":"PARACICLO","cd_identificador_bicicletario_paraciclo":114,"dt_carga":"2026-03-07Z","Name":"kml_113"},"id":"bicicletario_paraciclo.114"},
{"type":"Feature","geometry":{"type":"Point","coordinates":[-46.693816999911554,-23.56718300004003]},"properties":{"bcp_local":"LARGO DA BATATA","bcp_orgao":"TEMBICI","bcp_vaga":100,"bcp_tipo":"BICICLETARIO","cd_identificador_bicicletario_paraciclo":115,"dt_carga":"2026-03-07Z","Name":"kml_114"},"id":"bicicletario_paraciclo.115"},
{"type":"Feature","geometry":{"type":"Point","coordinates":[-46.690695000217296,-23.546648000223975]},"properties":{"bcp_local":"ESTACAO VILA MADALENA","bcp_orgao":"METRO","bcp_vaga":8,"bcp_tipo":"PARACICLO","cd_identificador_bicicletario_paraciclo":116,"dt_carga":"2026-03-07Z","Name":"kml_115"},"id":"bicicletario_paraciclo.116"},
{"type":"Feature","geometry":{"type":"Point","coordinates":[-46.61557699975267,-23.547475000096547]},"properties":{"bcp_local":"ESTACAO BRAS","bcp_orgao":"METRO","bcp_vaga":8,"bcp_tipo":"PARACICLO","cd_identificador_bicicletario_paraciclo":117,"dt_carga":"2026-03-07Z","Name":"kml_116"},"id":"bicicletario_paraciclo.117"},
{"type":"Feature","geometry":{"type":"Point","coordinates":[-46.476318999747505,-23.613548000081177]},"properties":{"bcp_local":"TERMIAL SÃO MATEUS","bcp_orgao":"EMTU","bcp_vaga":16,"bcp_tipo":"PARACICLO","cd_identificador_bicicletario_paraciclo":118,"dt_carga":"2026-03-07Z","Name":"kml_117"},"id":"bicicletario_paraciclo.118"},
{"type":"Feature","geometry":{"type":"Point","coordinates":[-46.63924699981828,-23.547814999942972]},"properties":{"bcp_local":"ESTACAO ANHANGABAU","bcp_orgao":"METRO","bcp_vaga":6,"bcp_tipo":"PARACICLO","cd_identificador_bicicletario_paraciclo":119,"dt_carga":"2026-03-07Z","Name":"kml_118"},"id":"bicicletario_paraciclo.119"},
{"type":"Feature","geometry":{"type":"Point","coordinates":[-46.54680299965402,-23.51906700031541]},"properties":{"bcp_local":"TERMINAL PENHA","bcp_orgao":"SPTRANS","bcp_vaga":28,"bcp_tipo":"BICICLETARIO","cd_identificador_bicicletario_paraciclo":120,"dt_carga":"2026-03-07Z","Name":"kml_119"},"id":"bicicletario_paraciclo.120"},
{"type":"Feature","geometry":{"type":"Point","coordinates":[-46.55395899976113,-23.529463000335735]},"properties":{"bcp_local":"TERMINAL ARICANDUVA","bcp_orgao":"SPTRANS","bcp_vaga":54,"bcp_tipo":"BICICLETARIO","cd_identificador_bicicletario_paraciclo":121,"dt_carga":"2026-03-07Z","Name":"kml_120"},"id":"bicicletario_paraciclo.121"}
]}